{"type": "FeatureCollection", "features": [ {"type": "Feature", "properties": {"norad_id": 66574, "name": "STARLINK-35812", "group": "last-30-days", "lat": -42.322915833716294, "lon": -20.91022418614537, "alt_km": 420.4729041701348, "timestamp": "2025-12-23T16:57:11.059361+00:00", "meta": {"OBJECT_NAME": "STARLINK-35812", "OBJECT_ID": "2025-268T", "EPOCH": "2025-12-23T08:00:03.000384", "MEAN_MOTION": 15.51251078, "ECCENTRICITY": 0.00012092, "INCLINATION": 43.0003, "RA_OF_ASC_NODE": 59.0273, "ARG_OF_PERICENTER": 270.2256, "MEAN_ANOMALY": 84.3805, "EPHEMERIS_TYPE": 0, "CLASSIFICATION_TYPE": "U", "NORAD_CAT_ID": 66574, "ELEMENT_SET_NO": 999, "REV_AT_EPOCH": 611, "BSTAR": -0.038812018, "MEAN_MOTION_DOT": -0.02074527, "MEAN_MOTION_DDOT": 0}, "tle": {"line1": "1 66574U 25268T   25357.33336806 -.02074527  00000+0 -38812-1 0  9996", "line2": "2 66574  43.0003  59.0273 0001209 270.2256  84.3805 15.51251078  6113"}}, "geometry": {"type": "Point", "coordinates": [-20.91022418614537, -42.322915833716294]}}, {"type": "Feature", "properties": {"norad_id": 66575, "name": "STARLINK-35810", "group": "last-30-days", "lat": -41.128813356499265, "lon": -12.740053281016584, "alt_km": 417.97556082060237, "timestamp": "2025-12-23T16:57:11.059371+00:00", "meta": {"OBJECT_NAME": "STARLINK-35810", "OBJECT_ID": "2025-268U", "EPOCH": "2025-12-23T08:00:03.000384", "MEAN_MOTION": 15.52088577, "ECCENTRICITY": 0.0001248, "INCLINATION": 43.0001, "RA_OF_ASC_NODE": 59.0151, "ARG_OF_PERICENTER": 268.7324, "MEAN_ANOMALY": 90.9752, "EPHEMERIS_TYPE": 0, "CLASSIFICATION_TYPE": "U", "NORAD_CAT_ID": 66575, "ELEMENT_SET_NO": 999, "REV_AT_EPOCH": 611, "BSTAR": -0.037671783, "MEAN_MOTION_DOT": -0.02075543, "MEAN_MOTION_DDOT": 0}, "tle": {"line1": "1 66575U 25268U   25357.33336806 -.02075543  00000+0 -37672-1 0  9999", "line2": "2 66575  43.0001  59.0151 0001248 268.7324  90.9752 15.52088577  6115"}}, "geometry": {"type": "Point", "coordinates": [-12.740053281016584, -41.128813356499265]}}, {"type": "Feature", "properties": {"norad_id": 66576, "name": "STARLINK-35814", "group": "last-30-days", "lat": -39.558015536763875, "lon": -5.61316069245835, "alt_km": 415.50979492913393, "timestamp": "2025-12-23T16:57:11.059381+00:00", "meta": {"OBJECT_NAME": "STARLINK-35814", "OBJECT_ID": "2025-268V", "EPOCH": "2025-12-23T08:00:03.000384", "MEAN_MOTION": 15.52922706, "ECCENTRICITY": 0.00012738, "INCLINATION": 43.0002, "RA_OF_ASC_NODE": 59.004, "ARG_OF_PERICENTER": 264.7397, "MEAN_ANOMALY": 99.5102, "EPHEMERIS_TYPE": 0, "CLASSIFICATION_TYPE": "U", "NORAD_CAT_ID": 66576, "ELEMENT_SET_NO": 999, "REV_AT_EPOCH": 611, "BSTAR": -0.036471407, "MEAN_MOTION_DOT": -0.02071944, "MEAN_MOTION_DDOT": 0}, "tle": {"line1": "1 66576U 25268V   25357.33336806 -.02071944  00000+0 -36471-1 0  9997", "line2": "2 66576  43.0002  59.0040 0001273 264.7397  99.5102 15.52922706  6113"}}, "geometry": {"type": "Point", "coordinates": [-5.61316069245835, -39.558015536763875]}}, {"type": "Feature", "properties": {"norad_id": 66577, "name": "STARLINK-35815", "group": "last-30-days", "lat": -37.01523367936832, "lon": 2.788772963735398, "alt_km": 411.16468999034623, "timestamp": "2025-12-23T16:57:11.059392+00:00", "meta": {"OBJECT_NAME": "STARLINK-35815", "OBJECT_ID": "2025-268W", "EPOCH": "2025-12-23T08:00:03.000384", "MEAN_MOTION": 15.54385547, "ECCENTRICITY": 0.00013192, "INCLINATION": 43.0002, "RA_OF_ASC_NODE": 58.9897, "ARG_OF_PERICENTER": 268.7027, "MEAN_ANOMALY": 100.6778, "EPHEMERIS_TYPE": 0, "CLASSIFICATION_TYPE": "U", "NORAD_CAT_ID": 66577, "ELEMENT_SET_NO": 999, "REV_AT_EPOCH": 611, "BSTAR": -0.03497672, "MEAN_MOTION_DOT": -0.0209418, "MEAN_MOTION_DDOT": 0}, "tle": {"line1": "1 66577U 25268W   25357.33336806 -.02094180  00000+0 -34977-1 0  9994", "line2": "2 66577  43.0002  58.9897 0001319 268.7027 100.6778 15.54385547  6118"}}, "geometry": {"type": "Point", "coordinates": [2.788772963735398, -37.01523367936832]}}, {"type": "Feature", "properties": {"norad_id": 66578, "name": "STARLINK-35743", "group": "last-30-days", "lat": -35.26884459324349, "lon": 7.416734730780589, "alt_km": 408.60385262585623, "timestamp": "2025-12-23T16:57:11.059402+00:00", "meta": {"OBJECT_NAME": "STARLINK-35743", "OBJECT_ID": "2025-268X", "EPOCH": "2025-12-23T08:00:03.000384", "MEAN_MOTION": 15.55239572, "ECCENTRICITY": 0.00014618, "INCLINATION": 43.0002, "RA_OF_ASC_NODE": 58.9826, "ARG_OF_PERICENTER": 267.1974, "MEAN_ANOMALY": 105.1783, "EPHEMERIS_TYPE": 0, "CLASSIFICATION_TYPE": "U", "NORAD_CAT_ID": 66578, "ELEMENT_SET_NO": 999, "REV_AT_EPOCH": 611, "BSTAR": -0.034208792, "MEAN_MOTION_DOT": -0.02112052, "MEAN_MOTION_DDOT": 0}, "tle": {"line1": "1 66578U 25268X   25357.33336806 -.02112052  00000+0 -34209-1 0  9992", "line2": "2 66578  43.0002  58.9826 0001461 267.1974 105.1783 15.55239572  6116"}}, "geometry": {"type": "Point", "coordinates": [7.416734730780589, -35.26884459324349]}}, {"type": "Feature", "properties": {"norad_id": 66579, "name": "STARLINK-35868", "group": "last-30-days", "lat": -33.62107560523065, "lon": 11.253801016926895, "alt_km": 406.2340987592015, "timestamp": "2025-12-23T16:57:11.059415+00:00", "meta": {"OBJECT_NAME": "STARLINK-35868", "OBJECT_ID": "2025-268Y", "EPOCH": "2025-12-23T08:00:03.000384", "MEAN_MOTION": 15.56081603, "ECCENTRICITY": 0.00014989, "INCLINATION": 43, "RA_OF_ASC_NODE": 58.9767, "ARG_OF_PERICENTER": 259.4413, "MEAN_ANOMALY": 115.3793, "EPHEMERIS_TYPE": 0, "CLASSIFICATION_TYPE": "U", "NORAD_CAT_ID": 66579, "ELEMENT_SET_NO": 999, "REV_AT_EPOCH": 611, "BSTAR": -0.03328768, "MEAN_MOTION_DOT": -0.02119928, "MEAN_MOTION_DDOT": 0}, "tle": {"line1": "1 66579U 25268Y   25357.33336806 -.02119928  00000+0 -33288-1 0  9998", "line2": "2 66579  43.0000  58.9767 0001498 259.4413 115.3793 15.56081603  6116"}}, "geometry": {"type": "Point", "coordinates": [11.253801016926895, -33.62107560523065]}}, {"type": "Feature", "properties": {"norad_id": 66580, "name": "STARLINK-35872", "group": "last-30-days", "lat": -32.149588064323574, "lon": 14.359391887969421, "alt_km": 403.50061754781655, "timestamp": "2025-12-23T16:57:11.059426+00:00", "meta": {"OBJECT_NAME": "STARLINK-35872", "OBJECT_ID": "2025-268Z", "EPOCH": "2025-12-23T08:00:03.000384", "MEAN_MOTION": 15.56805274, "ECCENTRICITY": 0.00015548, "INCLINATION": 43.0002, "RA_OF_ASC_NODE": 58.9725, "ARG_OF_PERICENTER": 267.1337, "MEAN_ANOMALY": 109.6174, "EPHEMERIS_TYPE": 0, "CLASSIFICATION_TYPE": "U", "NORAD_CAT_ID": 66580, "ELEMENT_SET_NO": 999, "REV_AT_EPOCH": 611, "BSTAR": -0.029602602, "MEAN_MOTION_DOT": -0.01921178, "MEAN_MOTION_DDOT": 0}, "tle": {"line1": "1 66580U 25268Z   25357.33336806 -.01921178  00000+0 -29603-1 0  9993", "line2": "2 66580  43.0002  58.9725 0001554 267.1337 109.6174 15.56805274  6115"}}, "geometry": {"type": "Point", "coordinates": [14.359391887969421, -32.149588064323574]}}, {"type": "Feature", "properties": {"norad_id": 66581, "name": "STARLINK-35744", "group": "last-30-days", "lat": -30.91142407209005, "lon": 16.78357947336391, "alt_km": 400.93479583203225, "timestamp": "2025-12-23T16:57:11.059436+00:00", "meta": {"OBJECT_NAME": "STARLINK-35744", "OBJECT_ID": "2025-268AA", "EPOCH": "2025-12-23T08:00:03.000384", "MEAN_MOTION": 15.566938, "ECCENTRICITY": 0.00015758, "INCLINATION": 43.0004, "RA_OF_ASC_NODE": 58.9667, "ARG_OF_PERICENTER": 270.1754, "MEAN_ANOMALY": 108.4883, "EPHEMERIS_TYPE": 0, "CLASSIFICATION_TYPE": "U", "NORAD_CAT_ID": 66581, "ELEMENT_SET_NO": 999, "REV_AT_EPOCH": 610, "BSTAR": -0.011391472, "MEAN_MOTION_DOT": -0.00770229, "MEAN_MOTION_DDOT": 0}, "tle": {"line1": "1 66581U 25268AA  25357.33336806 -.00770229  00000+0 -11391-1 0  9997", "line2": "2 66581  43.0004  58.9667 0001575 270.1754 108.4883 15.56693800  6106"}}, "geometry": {"type": "Point", "coordinates": [16.78357947336391, -30.91142407209005]}}, {"type": "Feature", "properties": {"norad_id": 66582, "name": "STARLINK-35746", "group": "last-30-days", "lat": -29.842607875165662, "lon": 18.761116163771455, "alt_km": 400.1115689587705, "timestamp": "2025-12-23T16:57:11.059447+00:00", "meta": {"OBJECT_NAME": "STARLINK-35746", "OBJECT_ID": "2025-268AB", "EPOCH": "2025-12-23T08:00:03.000384", "MEAN_MOTION": 15.56433842, "ECCENTRICITY": 0.00013992, "INCLINATION": 43.0002, "RA_OF_ASC_NODE": 58.9618, "ARG_OF_PERICENTER": 262.0386, "MEAN_ANOMALY": 118.5924, "EPHEMERIS_TYPE": 0, "CLASSIFICATION_TYPE": "U", "NORAD_CAT_ID": 66582, "ELEMENT_SET_NO": 999, "REV_AT_EPOCH": 611, "BSTAR": -0.00037815186, "MEAN_MOTION_DOT": -0.00027728, "MEAN_MOTION_DDOT": 0}, "tle": {"line1": "1 66582U 25268AB  25357.33336806 -.00027728  00000+0 -37815-3 0  9998", "line2": "2 66582  43.0002  58.9618 0001399 262.0386 118.5924 15.56433842  6113"}}, "geometry": {"type": "Point", "coordinates": [18.761116163771455, -29.842607875165662]}}, {"type": "Feature", "properties": {"norad_id": 66583, "name": "STARLINK-35941", "group": "last-30-days", "lat": -28.80734119558016, "lon": 20.58887103354318, "alt_km": 400.1091922107489, "timestamp": "2025-12-23T16:57:11.059457+00:00", "meta": {"OBJECT_NAME": "STARLINK-35941", "OBJECT_ID": "2025-268AC", "EPOCH": "2025-12-23T08:00:03.000384", "MEAN_MOTION": 15.56466803, "ECCENTRICITY": 0.00014358, "INCLINATION": 43.0002, "RA_OF_ASC_NODE": 58.9573, "ARG_OF_PERICENTER": 266.2415, "MEAN_ANOMALY": 116.2985, "EPHEMERIS_TYPE": 0, "CLASSIFICATION_TYPE": "U", "NORAD_CAT_ID": 66583, "ELEMENT_SET_NO": 999, "REV_AT_EPOCH": 611, "BSTAR": -0.001689458, "MEAN_MOTION_DOT": -0.00121328, "MEAN_MOTION_DDOT": 0}, "tle": {"line1": "1 66583U 25268AC  25357.33336806 -.00121328  00000+0 -16895-2 0  9994", "line2": "2 66583  43.0002  58.9573 0001435 266.2415 116.2985 15.56466803  6119"}}, "geometry": {"type": "Point", "coordinates": [20.58887103354318, -28.80734119558016]}}]}